NORAD_CAT_ID,OBJECT_NAME,OBJECT_TYPE,EPOCH,MEAN_MOTION,ECCENTRICITY,INCLINATION,RA_OF_ASC_NODE,ARG_OF_PERICENTER,MEAN_ANOMALY,BSTAR,MEAN_MOTION_DOT,MEAN_MOTION_DDOT,TLE_LINE0,TLE_LINE1,TLE_LINE2,SEMIMAJOR_AXIS,PERIOD,APOGEE,PERIGEE,DECAYED
55941.0,STARLINK-5914,PAYLOAD,2024-07-01 14:37:00,14.98327764,0.0003425,69.9998,37.9608,267.6749,92.4018,0.00026242,3.039e-05,0.0,0 STARLINK-5914,1 55941U 23037AD  24183.60903913  .00003039  00000-0  26242-3 0  9992,2 55941  69.9998  37.9608 0003425 267.6749  92.4018 14.98327764 71692,6950.2,96.107,574.445,569.684,0.0
55941.0,STARLINK-5914,PAYLOAD,2024-07-01 21:01:33,14.98332125,0.0003449,69.9999,37.2883,268.6889,91.3875,0.00031944,3.721e-05,0.0,0 STARLINK-5914,1 55941U 23037AD  24183.87607792  .00003721  00000-0  31944-3 0  9990,2 55941  69.9999  37.2883 0003449 268.6889  91.3875 14.98332125 72072,6950.186,96.107,574.448,569.654,0.0
55941.0,STARLINK-5914,PAYLOAD,2024-07-01 22:37:41,14.98333841,0.0003441,69.9998,37.12,268.5604,91.516,0.0003464,4.043e-05,0.0,0 STARLINK-5914,1 55941U 23037AD  24183.94283739  .00004043  00000-0  34640-3 0  9993,2 55941  69.9998  37.1200 0003441 268.5604  91.5160 14.98333841 71747,6950.181,96.107,574.438,569.654,0.0
55941.0,STARLINK-5914,PAYLOAD,2024-07-02 14:39:02,14.9833263,0.0003363,70.0015,35.4367,268.8933,91.184,8.582e-05,9.31e-06,0.0,0 STARLINK-5914,1 55941U 23037AD  24184.61043994  .00000931  00000-0  85820-4 0  9994,2 55941  70.0015  35.4367 0003363 268.8933  91.1840 14.98332630 71843,6950.185,96.107,574.387,569.712,0.0
55941.0,STARLINK-5914,PAYLOAD,2024-07-02 19:27:26,14.98333254,0.0003355,70.0001,34.9314,268.713,91.3645,7.3253e-05,7.81e-06,0.0,0 STARLINK-5914,1 55941U 23037AD  24184.81072089  .00000781  00000-0  73253-4 0  9993,2 55941  70.0001  34.9314 0003355 268.7130  91.3645 14.98333254 72213,6950.183,96.107,574.38,569.716,0.0
55941.0,STARLINK-5914,PAYLOAD,2024-07-03 21:05:34,14.98334699,0.0003194,70.0004,32.2382,269.5095,90.5698,8.1853e-06,5e-08,0.0,0 STARLINK-5914,1 55941U 23037AD  24185.87887657  .00000005  00000-0  81853-5 0  9990,2 55941  70.0004  32.2382 0003194 269.5095  90.5698 14.98334699 72372,6950.178,96.107,574.263,569.823,0.0
55941.0,STARLINK-5914,PAYLOAD,2024-07-04 06:42:22,14.98359457,0.0003333,70.0006,31.2278,269.3833,90.6944,-0.0004568,-5.543e-05,0.0,0 STARLINK-5914,1 55941U 23037AD  24186.27942752 -.00005543  00000-0 -45680-3 0  9993,2 55941  70.0006  31.2278 0003333 269.3833  90.6944 14.98359457 72431,6950.102,96.105,574.283,569.65,0.0
55941.0,STARLINK-5914,PAYLOAD,2024-07-04 14:43:03,14.98331179,0.000314,70.0005,30.3864,269.8713,90.2086,3.6281e-05,3.4e-06,0.0,0 STARLINK-5914,1 55941U 23037AD  24186.61323618  .00000340  00000-0  36281-4 0  9991,2 55941  70.0005  30.3864 0003140 269.8713  90.2086 14.98331179 72141,6950.189,96.107,574.237,569.872,0.0
55941.0,STARLINK-5914,PAYLOAD,2024-07-04 21:07:35,14.98331568,0.0003166,70.0005,29.7135,267.103,92.9767,3.6099e-05,3.38e-06,0.0,0 STARLINK-5914,1 55941U 23037AD  24186.88027559  .00000338  00000-0  36099-4 0  9999,2 55941  70.0005  29.7135 0003166 267.1030  92.9767 14.98331568 72524,6950.188,96.107,574.253,569.853,0.0
55941.0,STARLINK-5914,PAYLOAD,2024-07-04 22:43:43,14.98332177,0.000316,70.0005,29.5451,267.3529,92.7269,4.1832e-05,4.06e-06,0.0,0 STARLINK-5914,1 55941U 23037AD  24186.94703499  .00000406  00000-0  41832-4 0  9997,2 55941  70.0005  29.5451 0003160 267.3529  92.7269 14.98332177 72197,6950.186,96.107,574.247,569.855,0.0
55941.0,STARLINK-5914,PAYLOAD,2024-07-05 14:45:04,14.98329103,0.0003155,70.0006,27.8621,268.1839,91.8958,2.0466e-05,1.51e-06,0.0,0 STARLINK-5914,1 55941U 23037AD  24187.61463706  .00000151  00000-0  20466-4 0  9993,2 55941  70.0006  27.8621 0003155 268.1839  91.8958 14.98329103 72296,6950.196,96.107,574.253,569.868,0.0
55941.0,STARLINK-5914,PAYLOAD,2024-07-05 21:09:36,14.98331773,0.0003145,70.0006,27.1889,267.7584,92.3215,4.4283e-05,4.35e-06,0.0,0 STARLINK-5914,1 55941U 23037AD  24187.88167481  .00000435  00000-0  44283-4 0  9991,2 55941  70.0006  27.1889 0003145 267.7584  92.3215 14.98331773 72339,6950.187,96.107,574.238,569.867,0.0
55941.0,STARLINK-5914,PAYLOAD,2024-07-05 22:45:44,14.98331842,0.0003144,70.0006,27.0205,267.7719,92.308,4.391e-05,4.31e-06,0.0,0 STARLINK-5914,1 55941U 23037AD  24187.94843470  .00000431  00000-0  43910-4 0  9999,2 55941  70.0006  27.0205 0003144 267.7719  92.3080 14.98331842 72684,6950.187,96.107,574.237,569.867,0.0
55941.0,STARLINK-5914,PAYLOAD,2024-07-06 14:47:05,14.9832979,0.0003134,70.0006,25.3374,267.7951,92.2849,2.6185e-05,2.19e-06,0.0,0 STARLINK-5914,1 55941U 23037AD  24188.61603580  .00000219  00000-0  26185-4 0  9999,2 55941  70.0006  25.3374 0003134 267.7951  92.2849 14.98329790 72444,6950.194,96.107,574.237,569.88,0.0
55941.0,STARLINK-5914,PAYLOAD,2024-07-06 21:11:37,14.98329585,0.000315,70.0007,24.6643,268.9273,91.1525,2.309e-05,1.83e-06,0.0,0 STARLINK-5914,1 55941U 23037AD  24188.88307631  .00000183  00000-0  23090-4 0  9998,2 55941  70.0007  24.6643 0003150 268.9273  91.1525 14.98329585 72489,6950.194,96.107,574.248,569.87,0.0
55941.0,STARLINK-5914,PAYLOAD,2024-07-06 22:47:45,14.98329845,0.0003149,70.0007,24.4959,268.9648,91.115,2.5245e-05,2.08e-06,0.0,0 STARLINK-5914,1 55941U 23037AD  24188.94983609  .00000208  00000-0  25245-4 0  9992,2 55941  70.0007  24.4959 0003149 268.9648  91.1150 14.98329845 72833,6950.193,96.107,574.247,569.87,0.0
55941.0,STARLINK-5914,PAYLOAD,2024-07-07 06:48:26,14.98329713,0.0003205,70.0004,23.6535,269.5462,90.533,-1.1324e-08,-9.3e-07,0.0,0 STARLINK-5914,1 55941U 23037AD  24189.28363665 -.00000093  00000-0 -11324-7 0  9994,2 55941  70.0004  23.6535 0003205 269.5462  90.5330 14.98329713 72540,6950.194,96.107,574.286,569.831,0.0
55941.0,STARLINK-5914,PAYLOAD,2024-07-07 22:49:46,14.98334922,0.0003295,70.0003,21.9703,270.1701,89.9081,6.5621e-05,6.9e-06,0.0,0 STARLINK-5914,1 55941U 23037AD  24189.95123171  .00000690  00000-0  65621-4 0  9991,2 55941  70.0003  21.9703 0003295 270.1701  89.9081 14.98334922 72981,6950.178,96.107,574.333,569.753,0.0
55941.0,STARLINK-5914,PAYLOAD,2024-07-08 14:51:07,14.98332276,0.0003231,70.0006,20.2868,270.2859,89.793,6.6536e-05,7.01e-06,0.0,0 STARLINK-5914,1 55941U 23037AD  24190.61883253  .00000701  00000-0  66536-4 0  9999,2 55941  70.0006  20.2868 0003231 270.2859  89.7930 14.98332276 72748,6950.186,96.107,574.296,569.805,0.0
55941.0,STARLINK-5914,PAYLOAD,2024-07-08 21:15:39,14.98335055,0.000322,70.0006,19.6135,270.2528,89.8262,9.3787e-05,1.026e-05,0.0,0 STARLINK-5914,1 55941U 23037AD  24190.88586981  .00001026  00000-0  93787-4 0  9995,2 55941  70.0006  19.6135 0003220 270.2528  89.8262 14.98335055 72789,6950.177,96.107,574.28,569.804,0.0
55941.0,STARLINK-5914,PAYLOAD,2024-07-08 22:51:47,14.98335791,0.0003217,70.0006,19.4452,270.2476,89.8315,0.00010076,1.11e-05,0.0,0 STARLINK-5914,1 55941U 23037AD  24190.95262902  .00001110  00000-0  10076-3 0  9990,2 55941  70.0006  19.4452 0003217 270.2476  89.8315 14.98335791 73133,6950.175,96.107,574.276,569.804,0.0
55941.0,STARLINK-5914,PAYLOAD,2024-07-09 13:17:00,14.98331923,0.0003104,70.0009,17.9304,271.0695,89.0109,1.5429e-05,9.1e-07,0.0,0 STARLINK-5914,1 55941U 23037AD  24191.55347294  .00000091  00000-0  15429-4 0  9990,2 55941  70.0009  17.9304 0003104 271.0695  89.0109 14.98331923 73228,6950.187,96.107,574.209,569.895,0.0
55941.0,STARLINK-5914,PAYLOAD,2024-07-09 14:53:08,14.98330607,0.0003134,70.0008,17.762,270.7372,89.3428,2.4498e-06,-6.4e-07,0.0,0 STARLINK-5914,1 55941U 23037AD  24191.62023389 -.00000064  00000-0  24498-5 0  9992,2 55941  70.0008  17.7620 0003134 270.7372  89.3428 14.98330607 72894,6950.191,96.107,574.234,569.878,0.0
55941.0,STARLINK-5914,PAYLOAD,2024-07-09 21:17:40,14.98331309,0.0003104,70.0009,17.0892,268.3477,91.7326,1.9109e-05,1.35e-06,0.0,0 STARLINK-5914,1 55941U 23037AD  24191.88727265  .00000135  00000-0  19109-4 0  9994,2 55941  70.0009  17.0892 0003104 268.3477  91.7326 14.98331309 72934,6950.189,96.107,574.211,569.897,0.0
55941.0,STARLINK-5914,PAYLOAD,2024-07-10 05:18:20,14.98331087,0.0003095,70.001,16.2473,269.5026,90.5778,1.8774e-06,-7.1e-07,0.0,0 STARLINK-5914,1 55941U 23037AD  24192.22107294 -.00000071  00000-0  18774-5 0  9995,2 55941  70.0010  16.2473 0003095 269.5026  90.5778 14.98331087 72980,6950.19,96.107,574.206,569.903,0.0
55941.0,STARLINK-5914,PAYLOAD,2024-07-10 21:19:41,14.98331873,0.0003101,70.0009,14.5641,269.3213,90.7591,-7.2694e-07,-1.02e-06,0.0,0 STARLINK-5914,1 55941U 23037AD  24192.88867188 -.00000102  00000-0 -72694-6 0  9990,2 55941  70.0009  14.5641 0003101 269.3213  90.7591 14.98331873 73080,6950.187,96.107,574.207,569.897,0.0
55941.0,STARLINK-5914,PAYLOAD,2024-07-11 13:21:01,14.98328802,0.0003157,70.0008,12.8807,268.7083,91.3714,3.9521e-05,3.79e-06,0.0,0 STARLINK-5914,1 55941U 23037AD  24193.55627266  .00000379  00000-0  39521-4 0  9990,2 55941  70.0008  12.8807 0003157 268.7083  91.3714 14.98328802 73186,6950.197,96.107,574.256,569.867,0.0
55941.0,STARLINK-5914,PAYLOAD,2024-07-11 18:09:26,14.98329985,0.0003243,70.0007,12.3755,268.9186,91.1602,3.0757e-05,2.74e-06,0.0,0 STARLINK-5914,1 55941U 23037AD  24193.75655217  .00000274  00000-0  30757-4 0  9995,2 55941  70.0007  12.3755 0003243 268.9186  91.1602 14.98329985 73215,6950.193,96.107,574.312,569.804,0.0
55941.0,STARLINK-5914,PAYLOAD,2024-07-12 05:22:22,14.98330586,0.0003345,70.0005,11.1967,271.2884,88.7892,2.8586e-05,2.48e-06,0.0,0 STARLINK-5914,1 55941U 23037AD  24194.22387172  .00000248  00000-0  28586-4 0  9998,2 55941  70.0005  11.1967 0003345 271.2884  88.7892 14.98330586 73627,6950.191,96.107,574.381,569.731,0.0
55941.0,STARLINK-5914,PAYLOAD,2024-07-12 13:23:03,14.98327726,0.0003303,70.0001,10.3552,271.1303,88.9477,2.2238e-05,1.72e-06,0.0,0 STARLINK-5914,1 55941U 23037AD  24194.55767444  .00000172  00000-0  22238-4 0  9992,2 55941  70.0001  10.3552 0003303 271.1303  88.9477 14.98327726 73334,6950.2,96.107,574.361,569.769,0.0
